title,url,description,state,city,addr,zip,tel
---
�����
�����ģ,https://www.metro.tokyo.jp/,�����ģ\nTOKYO METROPOLITAN GOVERNMENT\n���λ����и� ����Ϻ\n�͸���1206����,�����,���ɶ�,������2-8-1,163-8001,03-5321-1111
�ٻ�ģ,https://www.keishicho.metro.tokyo.jp/,�ٻ�ģ\nMetropolitan Police Department,�����,�����Ķ�,�⤬��2-1-1,100-8929
�������ģ,https://www.tfd.metro.tokyo.jp/,�������ģ\nTokyo Fire Department,�����,�����Ķ�,���Į1-3-5,100-8119,03-3212-2111
---
�̳�ƻ
�̳�ƻģ,https://www.pref.hokkaido.lg.jp/,
---
�Ŀ���
�Ŀ���ģ,https://www.pref.aomori.lg.jp/,
---
��긩
��긩ģ,https://www.pref.iwate.jp/,
---
���ĸ�
���ĸ�ģ,https://www.pref.akita.lg.jp/,
---
�ܾ븩
�ܾ븩ģ,https://www.pref.miyagi.jp/,
---
������
������ģ,https://www.pref.yamagata.jp/,
---
ʡ�縩
ʡ�縩ģ,https://www.pref.fukushima.jp/,
---
���㸩
���㸩ģ,https://www.pref.niigata.jp/,
---
�ٻ���
�ٻ���ģ,https://www.pref.toyama.jp/,
---
���
���ģ,https://www.pref.ishikawa.jp/,
---
ʡ�温
ʡ�温ģ,https://www.pref.fukui.jp/,
---
��븩
��븩ģ,https://www.pref.ibaraki.jp/,
---
���ڸ�
���ڸ�ģ,https://www.pref.tochigi.jp/,
---
���ϸ�
���ϸ�ģ,https://www.pref.gunma.jp/,
---
���ո�
���ո�ģ,https://www.pref.chiba.jp/
---
��̸�
��̸�ģ,https://www.pref.saitama.lg.jp/,
---
������
������ģ,https://www.pref.yamanashi.jp/
---
�����
�����ģ,https://www.pref.kanagawa.jp/,
---
Ĺ�
Ĺ�ģ,https://www.pref.nagano.jp/,
---
���츩
���츩ģ,https://www.pref.gifu.lg.jp/,
---
�Ų���
�Ų���ģ,https://www.pref.shizuoka.jp/,
---
���θ�
���θ�ģ,https://www.pref.aichi.jp/,
---
���Ÿ�
���Ÿ�ģ,https://www.pref.mie.jp/,
---
���츩
���츩ģ,https://www.pref.shiga.jp/,
---
������
������ģ,https://www.pref.kyoto.jp/,
---
���ɸ�
���ɸ�ģ,https://www.pref.nara.jp/,
---
�����
�����ģ,https://www.pref.osaka.jp/,
---
�²λ���
�²λ���ģ,https://www.pref.wakayama.lg.jp/,
---
ʼ�˸�
ʼ�˸�ģ,https://web.pref.hyogo.jp/,
---
Ļ�踩
Ļ�踩ģ,https://www.pref.tottori.jp/,
---
�纬��
�纬��ģ,https://www.pref.shimane.lg.jp/,
---
������
������ģ,https://www.pref.okayama.jp/,
---
���縩
���縩ģ,https://www.pref.hiroshima.lg.jp/,
---
������
������ģ,https://www.pref.yamaguchi.jp/,
---
���
���ģ,https://www.pref.kagawa.jp/,
---
��ɲ��
��ɲ��ģ,https://www.pref.ehime.jp/,
---
���縩
���縩ģ,https://www.pref.tokushima.jp/,
---
���θ�
���θ�ģ,https://www.pref.kochi.jp/,
---
ʡ����
ʡ����ģ,https://www.pref.fukuoka.lg.jp/,
---
���츩
���츩ģ,https://www.pref.saga.jp/,
---
Ĺ�긩
Ĺ�긩ģ,https://www.pref.nagasaki.jp/,
---
��ʬ��
��ʬ��ģ,https://www.pref.oita.jp/,
---
���ܸ�
���ܸ�ģ,https://www.pref.kumamoto.jp/,
---
�ܺ긩
�ܺ긩ģ,https://www.pref.miyazaki.lg.jp/,
---
�����縩
�����縩ģ,https://www.pref.kagoshima.jp/,
---
���츩
���츩ģ,https://www.pref.okinawa.jp/,
---
�����Ķ�
�����Ķ����,https://www.city.chiyoda.tokyo.jp/,�����Ķ����\n��Ĺ������ ���\n�͸���4.3����,�����,�����Ķ�,������1-6-11,102-8688,03-3264-2111
---
�����
��������,https://www.city.chuo.lg.jp/,��������\n��Ĺ������ ����\n�͸���9.6����,�����,�����,����1-1-1,104-8404,03-3543-0211
---
����
�������,https://www.city.minato.tokyo.jp/,�������\n��Ĺ����� ��\n�͸���17����,�����,����,�Ǹ���1-5-25,105-8511,03-3578-2111\n
---
���ɶ�
���ɶ����,https://www.city.shinjuku.tokyo.jp/,���ɶ����\n��Ĺ���滳 ����\n�͸���26����,�����,���ɶ�,�����Į1-4-1,160-8484.03-3209-1111
---
ʸ����
ʸ�������,https://www.city.bunkyo.lg.jp/,ʸ�������\n��Ĺ���컳 ��\n�͸���17����,�����,ʸ����,����1-16-21,112-8555,03-3812-7111
---
�����
��������,https://www.city.taito.tokyo.jp/,��������\n��Ĺ���Ƚ� ��\n�͸���15����,�����,�����,�����4-5-6,110-8615,03-5246-1111
---
���Ķ�
���Ķ����,https://www.city.sumida.lg.jp/,���Ķ����\n��Ĺ������ ��\n�͸���21����,�����,���Ķ�,��ʶ�1-23-20,130-8640,03-5608-1111
---
�����
��������,https://www.city.koto.lg.jp/,��������\n��Ĺ������ ��\n�͸���38����,�����,�����,���� 4-11-28,135-8383,03-3647-9111
---
�����
��������,https://www.city.shinagawa.tokyo.jp/,��������\n��Ĺ���ⶶ ����\n�͸���32����,�����,�����,��Į2-1-36,140-8715,03-3777-1111
---
�ܹ���
�ܹ������,https://www.city.meguro.tokyo.jp/,�ܹ������\n��Ĺ�����ջ� ���\n�͸���24����,�����,�ܹ���,���ܹ�2-19-15,153-8573,03-3715-1111
---
���Ķ�
���Ķ����,https://www.city.ota.tokyo.jp/,���Ķ����\n��Ĺ������ ��ͺ\n�͸���64����,�����,���Ķ�,����5-13-14,144-8621,03-5744-1111
---
����ë��
����ë�����,https://www.city.setagaya.tokyo.jp/,����ë�����\n��Ĺ������ ůǷ\n�͸���78����,�����,����ë��,����ë4-21-27,154-8504,03-5432-1111
---
��ë��
��ë�����,https://www.city.shibuya.tokyo.jp/,��ë�����\n��Ĺ������ ����\n�͸���29����,�����,��ë��,������Į1-1,150-8010,03-3463-1211
---
�����
��������,https://www.city.tokyo-nakano.lg.jp/,��������\n��Ĺ������ ����\n�͸���29����,�����,�����,����4-8-1,164-8501,03-3389-1111
---
���¶�
���¶����,https://www.city.suginami.tokyo.jp/,���¶����\n��Ĺ������ ��\n�͸���51����,�����,���¶�,����ë��1-15-1,166-8570,03-3312-2111
---
˭���
˭������,https://www.city.toshima.tokyo.jp/,˭������\n��Ĺ������ Ƿ��\n�͸���24����,�����,˭���,������1-18-1,170-8422,03-3981-1111
---
�̶�
�̶����,https://www.city.kita.tokyo.jp/,�̶����\n��Ĺ������ Ϳ����\n�͸���32����,�����,�̶�,������Į1-15-22,114-8508,03-3908-1111
---
�����
��������,https://www.city.arakawa.tokyo.jp/,��������\n��Ĺ��ƣ߷ �ָ�\n�͸���17����,�����,�����,����2-2-3,116-8501,03-3802-3111
---
�Ķ���
�Ķ������,https://www.city.itabashi.tokyo.jp/,�Ķ������\n��Ĺ������ ��ͺ\n�͸���50����,�����,�Ķ���,�Ķ�2-66-1,173-8501,03-3964-1111
---
���϶�
���϶����,https://www.city.nerima.tokyo.jp/,���϶����\n��Ĺ����¼ ˭��Ϻ\n�͸���65����,�����,���϶�,˭����6-12-1,176-8501,03-3993-1111
---
­Ω��
­Ω�����,https://www.city.adachi.tokyo.jp/,­Ω�����\n��Ĺ������ ��ǯ\n�͸���62����,�����,­Ω��,�����Į1-17-1,120-8510,03-3880-5111
---
�����
��������,https://www.city.katsushika.tokyo.jp/,��������\n��Ĺ������ ͦ\n�͸���42����,�����,�����,Ω��5-13-1,124-8555,03-3695-1111
---
�������
����������,https://www.city.edogawa.tokyo.jp/,����������\n��Ĺ��¿�� ����\n�͸���62����,�����,�������,���1-4-1,132-8501,03-3652-1151
